country,state,city,station,latitude,longitude,last_update,CO,NH3,NO2,OZONE,PM10,PM2.5,SO2
India,Andhra_Pradesh,Anantapur,"Gulzarpet, Anantapur - APPCB",14.675886,77.593027,2025-05-19 10:00:00,46.0,8.0,32.0,8.0,64.0,69.0,13.0
India,Andhra_Pradesh,Chittoor,"Gangineni Cheruvu, Chittoor - APPCB",13.20488,79.097889,2025-05-19 10:00:00,49.0,5.0,21.0,28.0,65.0,72.0,10.0
India,Andhra_Pradesh,Rajamahendravaram,"Anand Kala Kshetram, Rajamahendravaram - APPCB",16.9872867,81.7363176,2025-05-19 10:00:00,24.0,2.0,21.0,11.0,36.0,23.0,3.0
India,Andhra_Pradesh,Tirumala,"Toll Gate, Tirumala - APPCB (Formerly known as Tirumala, Tirupati - APPCB)",13.67,79.35,2025-05-19 10:00:00,21.0,1.0,17.0,9.0,40.0,52.0,4.0
India,Andhra_Pradesh,Tirupati,"Vaikuntapuram, Tirupati - APPCB",13.615387,79.40923,2025-05-19 10:00:00,18.0,2.0,8.0,27.0,67.0,94.0,13.0
India,Andhra_Pradesh,Vijayawada,"HB Colony, Vijayawada - APPCB",16.536107,80.594233,2025-05-19 10:00:00,41.0,6.0,18.0,8.0,51.0,46.0,20.0
India,Andhra_Pradesh,Vijayawada,"Rajiv Gandhi Park, Vijayawada - APPCB",16.509717,80.612222,2025-05-19 10:00:00,41.0,5.0,43.0,15.0,48.0,50.0,19.0
India,Andhra_Pradesh,Vijayawada,"Rajiv Nagar, Vijayawada - APPCB",16.554731,80.64911,2025-05-19 10:00:00,26.0,5.0,21.0,22.0,48.0,45.0,21.0
India,Andhra_Pradesh,Visakhapatnam,"GVM Corporation, Visakhapatnam - APPCB",17.72,83.3,2025-05-19 10:00:00,13.0,3.0,15.0,18.0,36.0,23.0,9.0
India,Assam,Byrnihat,"Central Academy for SFS, Byrnihat - PCBA",26.071318,91.87488,2025-05-19 10:00:00,51.0,4.0,12.0,23.0,90.0,102.0,31.0
India,Assam,Guwahati,"LGBI Airport, Guwahati - PCBA",26.10887,91.589544,2025-05-19 10:00:00,51.0,16.0,19.0,18.0,39.0,46.0,10.0
India,Assam,Silchar,"Tarapur, Silchar - PCBA",24.82827,92.79525,2025-05-19 10:00:00,25.0,1.0,12.0,1.0,60.0,37.0,5.0
India,Assam,Sivasagar,"Girls College, Sivasagar - PCBA",26.987634,94.636574,2025-05-19 10:00:00,19.0,4.0,22.0,3.0,25.0,23.0,9.0
India,Bihar,Arrah,"New DM Office, Arrah - BSPCB",25.5626095,84.663264,2025-05-19 10:00:00,18.0,1.0,7.0,10.0,51.0,25.0,9.0
India,Bihar,Aurangabad,"Gurdeo Nagar, Aurangabad - BSPCB",24.75746,84.366208,2025-05-19 10:00:00,26.0,1.0,8.0,18.0,53.0,39.0,10.0
India,Bihar,Begusarai,"Lohiyanagar, Begusarai - BSPCB",25.42742023,86.13886079,2025-05-19 10:00:00,49.0,11.0,73.0,9.0,56.0,40.0,37.0
India,Bihar,Buxar,"Charitra Van, Buxar - BSPCB",25.56752,83.966379,2025-05-19 10:00:00,27.0,4.0,5.0,5.0,58.0,40.0,7.0
India,Bihar,Gaya,"SFTI Kusdihra, Gaya - BSPCB",24.762518,84.982348,2025-05-19 10:00:00,30.0,3.0,18.0,16.0,69.0,52.0,8.0
India,Bihar,Hajipur,"Industrial Area, Hajipur - BSPCB",25.697189,85.2459,2025-05-19 10:00:00,20.0,5.0,18.0,76.0,54.0,57.0,9.0
India,Bihar,Muzaffarpur,"Buddha Colony, Muzaffarpur - BSPCB",26.11442,85.39813,2025-05-19 10:00:00,21.0,2.0,3.0,42.0,44.0,43.0,3.0
India,Bihar,Muzaffarpur,"MIT-Daudpur Kothi, Muzaffarpur - BSPCB",26.1403345,85.3650192,2025-05-19 10:00:00,49.0,2.0,13.0,23.0,44.0,26.0,8.0
India,Bihar,Patna,"DRM Office Danapur, Patna - BSPCB",25.586562,85.043586,2025-05-19 10:00:00,34.0,3.0,32.0,12.0,69.0,52.0,6.0
India,Bihar,Patna,"Govt. High School Shikarpur, Patna - BSPCB",25.592539,85.227158,2025-05-19 10:00:00,39.0,2.0,6.0,85.0,115.0,56.0,7.0
India,Bihar,Patna,"Muradpur, Patna - BSPCB",25.619651,85.147382,2025-05-19 10:00:00,50.0,7.0,53.0,16.0,96.0,92.0,8.0
India,Bihar,Patna,"Samanpura, Patna - BSPCB",25.596727,85.085624,2025-05-19 10:00:00,33.0,6.0,44.0,55.0,99.0,59.0,2.0
India,Chandigarh,Chandigarh,"Sector-53, Chandigarh - CPCC",30.719859,76.738637,2025-05-19 10:00:00,59.0,8.0,27.0,58.0,105.0,72.0,17.0
India,Chhattisgarh,Bhilai,"32Bungalows, Bhilai - CECB",21.194815,81.31477,2025-05-19 10:00:00,29.0,3.0,11.0,18.0,43.0,44.0,8.0
India,Chhattisgarh,Bhilai,"Civic Center, Bhilai - Bhilai Steel Plant",21.185571,81.343175,2025-05-19 10:00:00,53.0,3.0,21.0,9.0,30.0,34.0,11.0
India,Chhattisgarh,Korba,"Rampur, Korba - CECB",22.368195,82.746431,2025-05-19 10:00:00,29.0,1.0,18.0,10.0,43.0,30.0,15.0
India,Chhattisgarh,Korba,"Urja Nagar, Korba - CECB",22.348441,82.549611,2025-05-19 10:00:00,35.0,3.0,51.0,35.0,79.0,78.0,9.0
India,Chhattisgarh,Kunjemura,"OP Jindal School, Kunjemura - CECB",22.12665,83.483212,2025-05-19 10:00:00,36.0,2.0,16.0,8.0,45.0,31.0,5.0
India,Chhattisgarh,Raipur,"AIIMS, Raipur - CECB",21.258815,81.578979,2025-05-19 10:00:00,32.0,7.0,20.0,7.0,62.0,43.0,8.0
India,Chhattisgarh,Raipur,"Bhatagaon New ISBT, Raipur - CECB",21.219665,81.630094,2025-05-19 10:00:00,26.0,2.0,36.0,10.0,48.0,30.0,8.0
India,Chhattisgarh,Raipur,"Krishak Nagar, Raipur - CECB",21.237755,81.705301,2025-05-19 10:00:00,33.0,7.0,13.0,4.0,59.0,58.0,8.0
India,Chhattisgarh,Raipur,"Siltara Phase-II, Raipur - CECB",21.371751,81.664929,2025-05-19 10:00:00,29.0,3.0,23.0,6.0,99.0,67.0,14.0
India,Delhi,Delhi,"Alipur, Delhi - DPCC",28.815329,77.15301,2025-05-19 10:00:00,38.0,16.0,26.0,26.0,177.0,146.0,23.0
India,Delhi,Delhi,"Anand Vihar, Delhi - DPCC",28.647622,77.315809,2025-05-19 10:00:00,58.0,11.0,73.0,3.0,178.0,138.0,27.0
India,Delhi,Delhi,"Ashok Vihar, Delhi - DPCC",28.695381,77.181665,2025-05-19 10:00:00,48.0,12.0,37.0,27.0,196.0,156.0,22.0
India,Delhi,Delhi,"Bawana, Delhi - DPCC",28.7762,77.051074,2025-05-19 10:00:00,44.0,11.0,21.0,14.0,189.0,163.0,15.0
India,Delhi,Delhi,"Chandni Chowk, Delhi - IITM",28.656756,77.227234,2025-05-19 10:00:00,73.0,8.0,73.0,16.0,71.0,69.0,16.0
India,Delhi,Delhi,"DTU, Delhi - CPCB",28.7500499,77.1112615,2025-05-19 10:00:00,35.0,12.0,48.0,28.0,182.0,106.0,79.0
India,Delhi,Delhi,"Dr. Karni Singh Shooting Range, Delhi - DPCC",28.498571,77.26484,2025-05-19 10:00:00,44.0,8.0,46.0,15.0,166.0,120.0,14.0
India,Delhi,Delhi,"Dwarka-Sector 8, Delhi - DPCC ",28.5710274,77.0719006,2025-05-19 10:00:00,54.0,12.0,51.0,35.0,178.0,146.0,24.0
India,Delhi,Delhi,"IHBAS, Dilshad Garden, Delhi - CPCB",28.6811736,77.3025234,2025-05-19 10:00:00,54.0,4.0,73.0,12.0,146.0,189.0,14.0
India,Delhi,Delhi,"ITO, Delhi - CPCB",28.628624,77.24106,2025-05-19 10:00:00,53.0,10.0,41.0,15.0,136.0,127.0,12.0
India,Delhi,Delhi,"Jahangirpuri, Delhi - DPCC",28.73282,77.170633,2025-05-19 10:00:00,34.0,10.0,30.0,9.0,216.0,217.0,15.0
India,Delhi,Delhi,"Jawaharlal Nehru Stadium, Delhi - DPCC",28.58028,77.233829,2025-05-19 10:00:00,45.0,15.0,58.0,36.0,166.0,87.0,14.0
India,Delhi,Delhi,"Major Dhyan Chand National Stadium, Delhi - DPCC",28.611281,77.237738,2025-05-19 10:00:00,43.0,20.0,38.0,11.0,160.0,161.0,11.0
India,Delhi,Delhi,"Mandir Marg, Delhi - DPCC",28.636429,77.201067,2025-05-19 10:00:00,33.0,7.0,29.0,47.0,141.0,105.0,12.0
India,Delhi,Delhi,"Mundka, Delhi - DPCC",28.684678,77.076574,2025-05-19 10:00:00,36.0,9.0,37.0,14.0,246.0,133.0,14.0
India,Delhi,Delhi,"NSIT Dwarka, Delhi - CPCB",28.60909,77.0325413,2025-05-19 10:00:00,15.0,12.0,59.0,27.0,150.0,254.0,4.0
India,Delhi,Delhi,"Najafgarh, Delhi - DPCC",28.570173,76.933762,2025-05-19 10:00:00,50.0,9.0,30.0,33.0,151.0,119.0,9.0
India,Delhi,Delhi,"Narela, Delhi - DPCC",28.822836,77.101981,2025-05-19 10:00:00,47.0,7.0,27.0,23.0,190.0,165.0,11.0
India,Delhi,Delhi,"Nehru Nagar, Delhi - DPCC",28.56789,77.250515,2025-05-19 10:00:00,40.0,8.0,41.0,49.0,174.0,148.0,15.0
India,Delhi,Delhi,"Okhla Phase-2, Delhi - DPCC",28.530785,77.271255,2025-05-19 10:00:00,42.0,9.0,35.0,43.0,175.0,121.0,6.0
India,Delhi,Delhi,"Patparganj, Delhi - DPCC",28.623763,77.287209,2025-05-19 10:00:00,50.0,6.0,28.0,20.0,204.0,146.0,5.0
India,Delhi,Delhi,"Pusa, Delhi - DPCC",28.639652,77.146275,2025-05-19 10:00:00,15.0,6.0,40.0,30.0,180.0,145.0,17.0
India,Delhi,Delhi,"R K Puram, Delhi - DPCC",28.563262,77.186937,2025-05-19 10:00:00,33.0,7.0,35.0,19.0,162.0,151.0,12.0
India,Delhi,Delhi,"Rohini, Delhi - DPCC",28.732528,77.11992,2025-05-19 10:00:00,51.0,12.0,40.0,9.0,185.0,127.0,9.0
India,Delhi,Delhi,"Shadipur, Delhi - CPCB",28.6514781,77.1473105,2025-05-19 10:00:00,54.0,6.0,94.0,26.0,176.0,163.0,30.0
India,Delhi,Delhi,"Sirifort, Delhi - CPCB",28.5504249,77.2159377,2025-05-19 10:00:00,48.0,13.0,55.0,28.0,172.0,181.0,32.0
India,Delhi,Delhi,"Sonia Vihar, Delhi - DPCC",28.710508,77.249485,2025-05-19 10:00:00,36.0,10.0,27.0,101.0,172.0,106.0,14.0
India,Delhi,Delhi,"Sri Aurobindo Marg, Delhi - DPCC",28.531346,77.190156,2025-05-19 10:00:00,44.0,10.0,36.0,16.0,163.0,133.0,10.0
India,Delhi,Delhi,"Vivek Vihar, Delhi - DPCC",28.672342,77.31526,2025-05-19 10:00:00,32.0,10.0,31.0,8.0,172.0,116.0,15.0
India,Delhi,Delhi,"Wazirpur, Delhi - DPCC",28.699793,77.165453,2025-05-19 10:00:00,53.0,17.0,59.0,12.0,236.0,184.0,12.0
India,Gujarat,Ahmedabad,"Chandkheda, Ahmedabad - IITM",23.107969,72.574648,2025-05-19 10:00:00,22.0,4.0,107.0,16.0,119.0,110.0,9.0
India,Gujarat,Ahmedabad,"Gyaspur, Ahmedabad - IITM",22.977134,72.553024,2025-05-19 10:00:00,11.0,2.0,36.0,11.0,99.0,112.0,18.0
India,Gujarat,Ahmedabad,"Rakhial, Ahmedabad - IITM",23.016834,72.625775,2025-05-19 10:00:00,51.0,1.0,14.0,18.0,47.0,33.0,25.0
India,Gujarat,Ahmedabad,"SAC ISRO Bopal, Ahmedabad - IITM",23.041137,72.456691,2025-05-19 10:00:00,22.0,1.0,10.0,4.0,68.0,59.0,2.0
India,Gujarat,Ahmedabad,"SAC ISRO Satellite, Ahmedabad - IITM",23.023389,72.515201,2025-05-19 10:00:00,7.0,2.0,8.0,15.0,68.0,63.0,7.0
India,Gujarat,Ahmedabad,"SVPI Airport Hansol, Ahmedabad - IITM",23.076793,72.627874,2025-05-19 10:00:00,10.0,4.0,25.0,4.0,41.0,34.0,3.0
India,Gujarat,Ahmedabad,"Sardar Vallabhbhai Patel Stadium, Ahmedabad - IITM",23.04307,72.562968,2025-05-19 10:00:00,9.0,20.0,97.0,8.0,60.0,54.0,7.0
India,Gujarat,Ankleshwar,"GIDC, Ankleshwar - GPCB",21.613267,73.010555,2025-05-19 10:00:00,55.0,6.0,51.0,48.0,46.0,29.0,48.0
India,Gujarat,Gandhinagar,"GIFT City, Gandhinagar - IITM",23.163798,72.677768,2025-05-19 10:00:00,45.0,6.0,29.0,10.0,82.0,98.0,24.0
India,Gujarat,Gandhinagar,"IIPHG Lekawada, Gandhinagar - IITM",23.243639,72.68994,2025-05-19 10:00:00,26.0,3.0,29.0,3.0,78.0,65.0,4.0
India,Gujarat,Gandhinagar,"Sector-10, Gandhinagar - GPCB",23.221714,72.654328,2025-05-19 10:00:00,43.0,5.0,18.0,13.0,62.0,30.0,6.0
India,Haryana,Panchgaon,"Amity University, Panchgaon - IITM",28.3153,76.9143,2025-05-19 10:00:00,65.0,7.0,80.0,28.0,71.0,76.0,19.0
India,Himachal Pradesh,Baddi,"HIMUDA Complex Phase-1, Baddi - HPPCB",30.943887,76.801991,2025-05-19 10:00:00,55.0,6.0,20.0,95.0,174.0,153.0,62.0
India,Karnataka,Bengaluru,"Bapuji Nagar, Bengaluru - KSPCB",12.951913,77.539784,2025-05-19 10:00:00,39.0,1.0,6.0,23.0,39.0,26.0,36.0
India,Karnataka,Bengaluru,"Jayanagar 5th Block, Bengaluru - KSPCB",12.920984,77.584908,2025-05-19 10:00:00,7.0,1.0,14.0,21.0,26.0,53.0,12.0
India,Karnataka,Bengaluru,"Jigani, Bengaluru - KSPCB",12.7816279,77.6299145,2025-05-19 10:00:00,32.0,8.0,39.0,24.0,73.0,42.0,29.0
India,Karnataka,Chamarajanagar,"Urban, Chamarajanagar - KSPCB",11.55358,76.55521,2025-05-19 10:00:00,20.0,2.0,21.0,15.0,40.0,25.0,3.0
India,Karnataka,Chikkaballapur,"Chikkaballapur Rural, Chikkaballapur - KSPCB",13.428828,77.731418,2025-05-19 10:00:00,6.0,4.0,25.0,29.0,31.0,21.0,11.0
India,Karnataka,Chikkamagaluru,"Kalyana Nagara, Chikkamagaluru - KSPCB",13.328028,75.797056,2025-05-19 10:00:00,11.0,2.0,26.0,10.0,32.0,20.0,2.0
India,Karnataka,Davanagere,"Devaraj Urs Badavane, Davanagere - KSPCB",14.4758,75.9052,2025-05-19 10:00:00,32.0,2.0,10.0,19.0,22.0,35.0,8.0
India,Karnataka,Dharwad,"Kalabhavan, Dharwad - KSPCB",15.459706,75.008381,2025-05-19 10:00:00,31.0,6.0,25.0,7.0,63.0,49.0,2.0
India,Karnataka,Hubballi,"Lingaraj Nagar, Hubballi - KSPCB",15.3714823,75.1160168,2025-05-19 10:00:00,13.0,2.0,9.0,11.0,46.0,36.0,1.0
India,Karnataka,Kalaburagi,"Mahatma Basaveswar Colony, Kalaburgi - KSPCB",17.336318,76.847397,2025-05-19 10:00:00,37.0,3.0,15.0,2.0,36.0,27.0,4.0
India,Karnataka,Madikeri,"Stuart Hill, Madikeri - KSPCB",12.415911,75.73505,2025-05-19 10:00:00,11.0,1.0,2.0,5.0,21.0,27.0,7.0
India,Karnataka,Mangalore,"Kadri, Mangalore - KSPCB",12.88925,74.853,2025-05-19 10:00:00,6.0,1.0,5.0,24.0,57.0,45.0,5.0
India,Karnataka,Mysuru,"Hebbal 1st Stage, Mysuru - KSPCB",12.21041,76.37376,2025-05-19 10:00:00,17.0,5.0,21.0,10.0,33.0,18.0,9.0
India,Karnataka,Shivamogga,"Vinoba Nagara, Shivamogga - KSPCB",13.94,75.555917,2025-05-19 10:00:00,26.0,2.0,37.0,1.0,46.0,33.0,4.0
India,Kerala,Eloor,"Udyogamandal, Eloor - Kerala PCB",10.073232,76.302765,2025-05-19 10:00:00,20.0,1.0,8.0,12.0,43.0,47.0,3.0
India,Kerala,Kollam,"Polayathode, Kollam - Kerala PCB",8.8787,76.6073,2025-05-19 10:00:00,16.0,1.0,9.0,31.0,81.0,53.0,2.0
India,Kerala,Thiruvananthapuram,"Kariavattom, Thiruvananthapuram - Kerala PCB",8.5637,76.8865,2025-05-19 10:00:00,22.0,1.0,7.0,36.0,58.0,32.0,6.0
India,Kerala,Thiruvananthapuram,"Plammoodu, Thiruvananthapuram - Kerala PCB",8.5149093,76.9435879,2025-05-19 10:00:00,8.0,2.0,10.0,12.0,16.0,19.0,19.0
India,Madhya Pradesh,Bhopal,"Idgah Hills, Bhopal - MPPCB",23.264759,77.381568,2025-05-19 10:00:00,10.0,6.0,29.0,43.0,89.0,55.0,24.0
India,Madhya Pradesh,Bhopal,"Paryavaran Parisar, Bhopal - MPPCB",23.210494,77.425409,2025-05-19 10:00:00,9.0,3.0,18.0,41.0,57.0,47.0,9.0
India,Madhya Pradesh,Dewas,"Bhopal Chauraha, Dewas - MPPCB",22.9682591,76.064118,2025-05-19 10:00:00,14.0,7.0,29.0,73.0,64.0,33.0,48.0
India,Madhya Pradesh,Gwalior,"City Center, Gwalior - MPPCB",26.203442,78.193251,2025-05-19 10:00:00,83.0,2.0,9.0,28.0,103.0,55.0,20.0
India,Madhya Pradesh,Gwalior,"Deen Dayal Nagar, Gwalior - MPPCB",26.259242,78.216432,2025-05-19 10:00:00,57.0,9.0,29.0,28.0,122.0,149.0,13.0
India,Madhya Pradesh,Gwalior,"Maharaj Bada, Gwalior - MPPCB",26.200388,78.147714,2025-05-19 10:00:00,40.0,3.0,25.0,44.0,125.0,65.0,12.0
India,Madhya Pradesh,Indore,"Chhoti Gwaltoli, Indore - MPPCB",22.431,75.5213,2025-05-19 10:00:00,25.0,7.0,65.0,40.0,82.0,50.0,11.0
India,Madhya Pradesh,Jabalpur,"Govindh Bhavan Colony, Jabalpur - JMC",23.163174,79.973061,2025-05-19 10:00:00,20.0,1.0,36.0,62.0,50.0,40.0,18.0
India,Madhya Pradesh,Jabalpur,"Gupteshwar, Jabalpur - JMC",23.142888,79.916147,2025-05-19 10:00:00,45.0,3.0,25.0,70.0,35.0,44.0,8.0
India,Madhya Pradesh,Jabalpur,"Marhatal, Jabalpur - MPPCB",23.168606,79.932247,2025-05-19 10:00:00,53.0,2.0,30.0,70.0,74.0,43.0,19.0
India,Madhya Pradesh,Jabalpur,"Suhagi, Jabalpur - JMC",23.218135,79.95777,2025-05-19 10:00:00,7.0,2.0,56.0,93.0,76.0,57.0,17.0
India,Madhya Pradesh,Katni,"Gole Bazar, Katni - MPPCB",23.50016,80.23284,2025-05-19 10:00:00,28.0,4.0,43.0,73.0,95.0,41.0,38.0
India,Madhya Pradesh,Mandideep,"Sector-D Industrial Area, Mandideep - MPPCB",23.10844,77.511428,2025-05-19 10:00:00,21.0,3.0,21.0,55.0,85.0,64.0,18.0
India,Madhya Pradesh,Pithampur,"Sector-2 Industrial Area, Pithampur - MPPCB",22.624758,75.675238,2025-05-19 10:00:00,16.0,2.0,19.0,44.0,91.0,69.0,14.0
India,Madhya Pradesh,Sagar,"Civil Lines, Sagar - MPPCB",23.838586,78.759431,2025-05-19 10:00:00,28.0,1.0,3.0,40.0,49.0,46.0,8.0
India,Madhya Pradesh,Singrauli,"Suryakiran Bhawan NCL, Singrauli - MPPCB",24.10897,82.64558,2025-05-19 10:00:00,14.0,6.0,3.0,52.0,71.0,38.0,23.0
India,Maharashtra,Aurangabad,"MIDC Chilkalthana, Aurangabad - MPCB",19.87562,75.38731,2025-05-19 10:00:00,102.0,3.0,32.0,6.0,106.0,119.0,1.0
India,Maharashtra,Aurangabad,"Rachnakar Colony, Aurangabad - MPCB",19.863756,75.321188,2025-05-19 10:00:00,15.0,3.0,43.0,35.0,87.0,45.0,15.0
India,Maharashtra,Akola,"Ramdaspeth, Akola - MPCB",20.719516,77.000253,2025-05-19 10:00:00,35.0,6.0,16.0,17.0,52.0,46.0,6.0
India,Maharashtra,Amravati,"Shivneri Colony, Amravati - MPCB",20.9402359,77.7895248,2025-05-19 10:00:00,23.0,3.0,12.0,27.0,67.0,51.0,2.0
India,Maharashtra,Amravati,"Shri Shivaji Science College, Amaravati - MPCB",20.939198,77.765701,2025-05-19 10:00:00,19.0,4.0,10.0,35.0,47.0,34.0,2.0
India,Maharashtra,Badlapur,"Katrap, Badlapur - MPCB",19.16485,73.23409,2025-05-19 10:00:00,37.0,3.0,51.0,10.0,105.0,76.0,12.0
India,Maharashtra,Bhiwandi,"Gokul Nagar, Bhiwandi - MPCB",19.309073,73.057223,2025-05-19 10:00:00,32.0,5.0,46.0,12.0,89.0,68.0,14.0
India,Maharashtra,Boisar,"Khaira, Boisar - MPCB",19.786089,72.757971,2025-05-19 10:00:00,12.0,3.0,8.0,29.0,58.0,35.0,9.0
India,Maharashtra,Kalyan,"Khadakpada, Kalyan - MPCB",19.25292,73.142019,2025-05-19 10:00:00,6.0,1.0,5.0,16.0,106.0,45.0,4.0
India,Maharashtra,Kalyan,"Pimpleshwar Mandir, Kalyan - MPCB",19.192056,72.9585188,2025-05-19 10:00:00,49.0,2.0,19.0,3.0,45.0,22.0,25.0
India,Maharashtra,Kolhapur,"Shivaji University, Kolhapur - MPCB",16.6870449,74.2505872,2025-05-19 10:00:00,13.0,8.0,5.0,3.0,45.0,32.0,2.0
India,Maharashtra,Latur,"Sawe Wadi, Latur - MPCB",18.39963,76.57452,2025-05-19 10:00:00,17.0,6.0,18.0,31.0,41.0,40.0,5.0
India,Maharashtra,Mahad,"Kamble Tarf Birwadi, Mahad - MPCB",18.1023399,73.4783687,2025-05-19 10:00:00,51.0,3.0,19.0,28.0,68.0,61.0,27.0
India,Maharashtra,Malegaon,"Mahesh Nagar, Malegaon - MPCB",20.555712,74.529236,2025-05-19 10:00:00,18.0,3.0,14.0,19.0,51.0,40.0,10.0
India,Maharashtra,Mira-Bhayandar,"Bhayandar West, Mira-Bhayandar - MPCB",19.296481,72.840923,2025-05-19 10:00:00,12.0,1.0,7.0,4.0,48.0,31.0,2.0
India,Maharashtra,Mumbai,"Byculla, Mumbai - BMC",18.9767,72.838,2025-05-19 10:00:00,4.0,4.0,14.0,18.0,28.0,17.0,1.0
India,Maharashtra,Mumbai,"Chakala-Andheri East, Mumbai - IITM",19.11074,72.86084,2025-05-19 10:00:00,21.0,5.0,44.0,18.0,73.0,27.0,2.0
India,Maharashtra,Mumbai,"Chembur, Mumbai - MPCB",19.0364585,72.8954371,2025-05-19 10:00:00,43.0,6.0,29.0,17.0,52.0,13.0,2.0
India,Maharashtra,Mumbai,"Chhatrapati Shivaji Intl. Airport (T2), Mumbai - MPCB",19.10078,72.87462,2025-05-19 10:00:00,15.0,1.0,18.0,7.0,71.0,40.0,20.0
India,Maharashtra,Mumbai,"Ghatkopar, Mumbai - BMC",19.083694,72.920967,2025-05-19 10:00:00,8.0,1.0,19.0,3.0,75.0,17.0,2.0
India,Maharashtra,Mumbai,"Kandivali West, Mumbai - BMC",19.215859,72.831718,2025-05-19 10:00:00,4.0,7.0,12.0,22.0,30.0,15.0,3.0
India,Maharashtra,Mumbai,"Kherwadi_Bandra East, Mumbai - MPCB",19.0632143,72.8456324,2025-05-19 10:00:00,17.0,4.0,14.0,15.0,52.0,33.0,1.0
India,Maharashtra,Mumbai,"Khindipada-Bhandup West, Mumbai - IITM",19.1653323,72.922099,2025-05-19 10:00:00,86.0,2.0,17.0,11.0,46.0,29.0,9.0
India,Maharashtra,Mumbai,"Malad West, Mumbai - IITM",19.19709,72.82204,2025-05-19 10:00:00,35.0,9.0,26.0,16.0,65.0,29.0,5.0
India,Maharashtra,Mumbai,"Mindspace-Malad West, Mumbai - MPCB",19.1878657,72.8304069,2025-05-19 10:00:00,11.0,6.0,11.0,11.0,50.0,15.0,7.0
India,Maharashtra,Mumbai,"Sion, Mumbai - MPCB",19.047,72.8746,2025-05-19 10:00:00,2.0,13.0,192.0,1.0,82.0,66.0,8.0
India,Maharashtra,Mumbai,"Vile Parle West, Mumbai - MPCB",19.10861,72.83622,2025-05-19 10:00:00,4.0,3.0,61.0,5.0,215.0,19.0,37.0
India,Maharashtra,Mumbai,"Worli, Mumbai - MPCB",18.9936162,72.8128113,2025-05-19 10:00:00,6.0,5.0,9.0,24.0,74.0,68.0,6.0
India,Maharashtra,Nagpur,"Ambazari, Nagpur - MPCB",21.121801,79.04952,2025-05-19 10:00:00,46.0,3.0,15.0,20.0,112.0,133.0,17.0
India,Maharashtra,Nagpur,"Mahal, Nagpur - MPCB",21.14472,79.107595,2025-05-19 10:00:00,48.0,3.0,25.0,12.0,115.0,71.0,32.0
India,Maharashtra,Nagpur,"Opp GPO Civil Lines, Nagpur - MPCB",21.152875,79.0517531,2025-05-19 10:00:00,59.0,4.0,41.0,13.0,98.0,137.0,38.0
India,Maharashtra,Nagpur,"Ram Nagar, Nagpur - MPCB",21.143383,79.048912,2025-05-19 10:00:00,44.0,5.0,16.0,16.0,124.0,136.0,10.0
India,Maharashtra,Nashik,"Gangapur Road, Nashik - MPCB",20.0073285,73.7762427,2025-05-19 10:00:00,14.0,4.0,18.0,30.0,39.0,41.0,5.0
India,Maharashtra,Nashik,"Hirawadi, Nashik - MPCB",20.021503,73.813844,2025-05-19 10:00:00,18.0,4.0,5.0,20.0,72.0,38.0,2.0
India,Maharashtra,Nashik,"MIDC Ambad, Nashik - MPCB",19.95022,73.73148,2025-05-19 10:00:00,17.0,8.0,8.0,11.0,74.0,54.0,2.0
India,Maharashtra,Nashik,"Pandav Nagari, Nashik - MPCB",19.9591346,73.7788008,2025-05-19 10:00:00,15.0,3.0,4.0,11.0,46.0,29.0,1.0
India,Maharashtra,Navi Mumbai,"Kopripada-Vashi, Navi Mumbai - MPCB",19.090337,73.014232,2025-05-19 10:00:00,33.0,7.0,18.0,38.0,54.0,55.0,6.0
India,Maharashtra,Navi Mumbai,"Sanpada, Navi Mumbai - MPCB",19.0575752,73.0151367,2025-05-19 10:00:00,24.0,5.0,18.0,8.0,72.0,49.0,16.0
India,Maharashtra,Navi Mumbai,"Sector-2E Kalamboli, Navi Mumbai - MPCB",19.02579,73.10297,2025-05-19 10:00:00,20.0,2.0,30.0,7.0,76.0,49.0,4.0
India,Maharashtra,Pimpri-Chinchwad,"Gavalinagar, Pimpri Chinchwad - MPCB",18.63673,73.82487,2025-05-19 10:00:00,21.0,4.0,26.0,6.0,55.0,40.0,2.0
India,Maharashtra,Pimpri-Chinchwad,"Park Street Wakad, Pimpri Chinchwad - MPCB",18.59051,73.77946,2025-05-19 10:00:00,21.0,13.0,23.0,2.0,59.0,34.0,2.0
India,Maharashtra,Pimpri-Chinchwad,"Thergaon, Pimpri Chinchwad - MPCB",18.616318,73.765797,2025-05-19 10:00:00,41.0,9.0,32.0,4.0,57.0,34.0,3.0
India,Maharashtra,Pune,"Katraj Dairy, Pune - MPCB",18.45445,73.854155,2025-05-19 10:00:00,16.0,2.0,7.0,30.0,34.0,23.0,2.0
India,Maharashtra,Sangli,"Vijay Nagar, Sangli - MPCB",16.5038,74.3623,2025-05-19 10:00:00,14.0,3.0,13.0,9.0,54.0,40.0,16.0
India,Maharashtra,Solapur,"Ratandeep Housing Society, Solapur - MPCB",17.65439,75.90649,2025-05-19 10:00:00,23.0,6.0,33.0,38.0,50.0,36.0,4.0
India,Maharashtra,Thane,"Upvan Fort, Thane - MPCB",19.222279,72.957979,2025-05-19 10:00:00,18.0,6.0,7.0,2.0,40.0,26.0,1.0
India,Maharashtra,Ulhasnagar,"Sidhi Vinayak Nagar, Ulhasnagar - MPCB",19.235581,73.159121,2025-05-19 10:00:00,33.0,3.0,48.0,15.0,93.0,71.0,13.0
India,Maharashtra,Virar,"Bolinj, Virar - MPCB",19.445821,72.7988231,2025-05-19 10:00:00,33.0,6.0,17.0,10.0,59.0,33.0,4.0
India,Odisha,Angul,"Hakimapada, Angul - OSPCB",20.832874,85.104082,2025-05-19 10:00:00,63.0,10.0,7.0,6.0,40.0,15.0,16.0
India,Odisha,Balasore,"Kalidaspur, Balasore - OSPCB",21.51161,86.89088,2025-05-19 10:00:00,24.0,1.0,8.0,19.0,33.0,10.0,6.0
India,Odisha,Barbil,"Forest Office, Barbil - OSPCB",22.1166054,85.3945546,2025-05-19 10:00:00,25.0,3.0,24.0,14.0,60.0,40.0,13.0
India,Odisha,Bhubaneswar,"Lingraj Mandir, Bhubaneswar - OSPCB",20.24079,85.836784,2025-05-19 10:00:00,52.0,4.0,6.0,13.0,19.0,9.0,4.0
India,Odisha,Bileipada,"Tata Township, Bileipada - OSPCB",22.06156703,85.47409613,2025-05-19 10:00:00,20.0,4.0,8.0,10.0,87.0,47.0,4.0
India,Odisha,Brajrajnagar,"GM Office, Brajrajnagar - OSPCB",21.8004996,83.8396977,2025-05-19 10:00:00,73.0,7.0,14.0,21.0,56.0,40.0,12.0
India,Odisha,Nayagarh,"Dabuna, Nayagarh - OSPCB",21.847279,85.416905,2025-05-19 10:00:00,21.0,7.0,5.0,7.0,60.0,29.0,5.0
India,Odisha,Suakati,"OMC Colony, Suakati - OSPCB",21.606865,85.510538,2025-05-19 10:00:00,15.0,4.0,12.0,81.0,46.0,39.0,3.0
India,Odisha,Talcher,"Talcher Coalfields,Talcher - OSPCB",20.9360711,85.1707021,2025-05-19 10:00:00,35.0,6.0,28.0,2.0,40.0,37.0,30.0
India,Punjab,Jalandhar,"Civil Line, Jalandhar - PPCB",31.321907,75.578914,2025-05-19 10:00:00,37.0,2.0,32.0,65.0,154.0,172.0,13.0
India,Punjab,Khanna,"Kalal Majra, Khanna - PPCB",30.736056,76.209694,2025-05-19 10:00:00,18.0,7.0,28.0,20.0,130.0,115.0,7.0
India,Punjab,Mandi Gobindgarh,"RIMT University, Mandi Gobindgarh - PPCB",30.649961,76.331442,2025-05-19 10:00:00,103.0,7.0,26.0,49.0,112.0,124.0,22.0
India,Punjab,Patiala,"Model Town, Patiala - PPCB",30.349388,76.366642,2025-05-19 10:00:00,48.0,4.0,18.0,48.0,129.0,133.0,3.0
India,Rajasthan,Ajmer,"Civil Lines,  Ajmer - RSPCB",26.470859,74.646594,2025-05-19 10:00:00,31.0,4.0,37.0,25.0,84.0,61.0,7.0
India,Rajasthan,Alwar,"Moti Doongri, Alwar - RSPCB",27.554793,76.611536,2025-05-19 10:00:00,72.0,20.0,125.0,21.0,79.0,60.0,44.0
India,Rajasthan,Banswara,"Rati Talai, Banswara - RSPCB",23.55519,74.44001,2025-05-19 10:00:00,108.0,4.0,16.0,29.0,61.0,47.0,11.0
India,Rajasthan,Baran,"Bamboliya, Baran - RSPCB",25.106006,76.469948,2025-05-19 10:00:00,19.0,8.0,19.0,52.0,81.0,29.0,5.0
India,Rajasthan,Barmer,"Railway Colony, Barmer - RSPCB",25.747299,71.393989,2025-05-19 10:00:00,8.0,5.0,7.0,47.0,81.0,23.0,5.0
India,Rajasthan,Bharatpur,"Krishna Nagar, Bharatpur - RSPCB",27.215415,77.50873,2025-05-19 10:00:00,37.0,6.0,41.0,20.0,102.0,59.0,6.0
India,Rajasthan,Bhiwadi,"RIICO Ind. Area III, Bhiwadi - RSPCB",28.194909,76.862296,2025-05-19 10:00:00,63.0,13.0,45.0,26.0,97.0,73.0,10.0
India,Rajasthan,Bhiwadi,"Vasundhara Nagar_UIT, Bhiwadi - RSPCB",28.207266,76.829265,2025-05-19 10:00:00,50.0,11.0,33.0,19.0,111.0,74.0,21.0
India,Rajasthan,Bikaner,"MM Ground, Bikaner - RSPCB",28.018792,73.292658,2025-05-19 10:00:00,10.0,5.0,9.0,45.0,125.0,28.0,4.0
India,Rajasthan,Bundi,"New Colony, Bundi - RSPCB",25.435774,75.644272,2025-05-19 10:00:00,17.0,7.0,15.0,41.0,88.0,36.0,8.0
India,Rajasthan,Chittorgarh,"Shastri Nagar, Chittorgarh - RSPCB",24.892047,74.623527,2025-05-19 10:00:00,22.0,6.0,19.0,30.0,74.0,48.0,9.0
India,Rajasthan,Churu,"Subash Chowk, Churu - RSPCB",28.296139,74.961696,2025-05-19 10:00:00,9.0,5.0,10.0,48.0,81.0,37.0,5.0
India,Rajasthan,Dausa,"Khatikan Mohalla, Dausa - RSPCB",26.895552,76.334753,2025-05-19 10:00:00,16.0,9.0,38.0,59.0,135.0,48.0,8.0
India,Rajasthan,Dholpur,"Raja Ganj, Dholpur - RSPCB",26.699557,77.898881,2025-05-19 10:00:00,31.0,8.0,20.0,45.0,124.0,45.0,11.0
India,Rajasthan,Dungarpur,"Bhoiwada, Dungarpur - RSPCB",23.837789,73.714926,2025-05-19 10:00:00,10.0,5.0,8.0,34.0,85.0,51.0,7.0
India,Rajasthan,Hanumangarh,"Housing Board, Hanumangarh - RSPCB",29.61075,74.283608,2025-05-19 10:00:00,46.0,8.0,11.0,23.0,137.0,119.0,5.0
India,Rajasthan,Jaipur,"Adarsh Nagar, Jaipur - RSPCB",26.902909,75.836858,2025-05-19 10:00:00,45.0,6.0,43.0,35.0,76.0,59.0,35.0
India,Rajasthan,Jaipur,"Mansarovar Sector-12, Jaipur - RSPCB",26.843698,75.766894,2025-05-19 10:00:00,39.0,3.0,26.0,55.0,91.0,30.0,3.0
India,Rajasthan,Jaipur,"RIICO Sitapura, Jaipur - RSPCB",26.786682,75.827928,2025-05-19 10:00:00,45.0,4.0,31.0,45.0,113.0,47.0,5.0
India,Rajasthan,Jaipur,"Shastri Nagar, Jaipur - RSPCB",26.9502929,75.730943,2025-05-19 10:00:00,31.0,4.0,18.0,29.0,108.0,70.0,19.0
India,Rajasthan,Jaisalmer,"Sadar Bazar, Jaisalmer - RSPCB",26.912329,70.909168,2025-05-19 10:00:00,35.0,7.0,3.0,29.0,107.0,27.0,7.0
India,Rajasthan,Jalore,"Mudtra Sili, Jalore - RSPCB",25.344694,72.626208,2025-05-19 10:00:00,13.0,4.0,9.0,42.0,79.0,39.0,3.0
India,Rajasthan,Jhalawar,"Rajlaxmi Nagar, Jhalawar - RSPCB",24.588397,76.172782,2025-05-19 10:00:00,25.0,8.0,48.0,58.0,94.0,107.0,13.0
India,Rajasthan,Jhunjhunu,"Indra Nagar, Jhunjhunu - RSPCB",28.108988,75.386577,2025-05-19 10:00:00,15.0,14.0,10.0,50.0,102.0,35.0,5.0
India,Rajasthan,Jodhpur,"Collectorate, Jodhpur - RSPCB",26.268249,73.0193853,2025-05-19 10:00:00,32.0,3.0,16.0,6.0,86.0,59.0,12.0
India,Rajasthan,Jodhpur,"Digari Kalan, Jodhpur - RSPCB",26.29581,73.082283,2025-05-19 10:00:00,16.0,5.0,10.0,23.0,68.0,36.0,5.0
India,Rajasthan,Jodhpur,"Jhalamand, Jodhpur - RSPCB",26.215415,73.070156,2025-05-19 10:00:00,15.0,6.0,6.0,40.0,75.0,26.0,4.0
India,Rajasthan,Jodhpur,"Mandor, Jodhpur - RSPCB",26.358805,73.047444,2025-05-19 10:00:00,17.0,5.0,14.0,38.0,69.0,28.0,6.0
India,Rajasthan,Jodhpur,"Samrat Ashok Udhyan, Jodhpur - RSPCB",26.253384,72.976571,2025-05-19 10:00:00,14.0,4.0,4.0,36.0,56.0,34.0,2.0
India,Rajasthan,Karauli,"Satyawati Vihar, Karauli - RSPCB",26.506177,77.025989,2025-05-19 10:00:00,40.0,8.0,17.0,47.0,80.0,24.0,8.0
India,Rajasthan,Kota,"Dhanmandi, Kota - RSPCB",25.16409,75.858137,2025-05-19 10:00:00,17.0,3.0,25.0,46.0,74.0,36.0,14.0
India,Rajasthan,Kota,"Nayapura, Kota - RSPCB",25.196024,75.855668,2025-05-19 10:00:00,15.0,1.0,19.0,55.0,80.0,42.0,16.0
India,Rajasthan,Kota,"Shrinath Puram, Kota - RSPCB",25.14389,75.821256,2025-05-19 10:00:00,54.0,2.0,14.0,50.0,94.0,92.0,13.0
India,Rajasthan,Nagaur,"Karni Colony, Nagaur - RSPCB",27.213494,73.734444,2025-05-19 10:00:00,17.0,6.0,8.0,30.0,98.0,37.0,5.0
India,Rajasthan,Pali,"Indira Colony Vistar, Pali - RSPCB",25.771061,73.340227,2025-05-19 10:00:00,36.0,4.0,32.0,32.0,116.0,57.0,11.0
India,Rajasthan,Pratapgarh,"Pragati Nagar, Pratapgarh - RSPCB",24.041198,74.780702,2025-05-19 10:00:00,25.0,5.0,22.0,23.0,59.0,31.0,5.0
India,Rajasthan,Rajsamand,"Dhoinda, Rajsamand - RSPCB",25.03636,73.883502,2025-05-19 10:00:00,37.0,11.0,34.0,74.0,59.0,43.0,10.0
India,Rajasthan,Sawai Madhopur,"Sahu Nagar, Sawai Madhopur - RSPCB",26.031443,76.359327,2025-05-19 10:00:00,54.0,13.0,19.0,56.0,124.0,66.0,8.0
India,Rajasthan,Sikar,"Radhakishan Pura, Sikar - RSPCB",27.608912,75.153302,2025-05-19 10:00:00,13.0,5.0,16.0,33.0,95.0,38.0,5.0
India,Rajasthan,Sirohi,"Vedhaynath Colony, Sirohi - RSPCB",24.885261,72.857549,2025-05-19 10:00:00,20.0,4.0,9.0,16.0,62.0,32.0,2.0
India,Rajasthan,Sri Ganganagar,"Old City, Sri Ganganagar - RSPCB",29.931624,73.864511,2025-05-19 10:00:00,23.0,6.0,34.0,29.0,152.0,55.0,11.0
India,Rajasthan,Tonk,"Shastri Nagar, Tonk - RSPCB",26.159933,75.780517,2025-05-19 10:00:00,32.0,7.0,21.0,27.0,94.0,74.0,3.0
India,Rajasthan,Udaipur,"Ashok Nagar, Udaipur - RSPCB",24.5886166,73.6321397,2025-05-19 10:00:00,29.0,7.0,35.0,17.0,81.0,57.0,3.0
India,TamilNadu,Chennai,"Alandur Bus Depot, Chennai - CPCB",12.9099161,80.1076538,2025-05-19 10:00:00,49.0,14.0,25.0,182.0,38.0,43.0,15.0
India,TamilNadu,Chennai,"Kodungaiyur, Chennai - TNPCB",13.1278,80.2642,2025-05-19 10:00:00,24.0,5.0,21.0,16.0,47.0,32.0,4.0
India,TamilNadu,Chennai,"Manali Village, Chennai - TNPCB",13.1662,80.2584,2025-05-19 10:00:00,29.0,1.0,4.0,39.0,38.0,42.0,7.0
India,TamilNadu,Chennai,"Perungudi, Chennai - TNPCB",12.9533,80.2357,2025-05-19 10:00:00,36.0,4.0,8.0,15.0,55.0,39.0,6.0
India,TamilNadu,Chennai,"Royapuram, Chennai - TNPCB",13.1036,80.2909,2025-05-19 10:00:00,31.0,4.0,20.0,9.0,33.0,37.0,8.0
India,TamilNadu,Chennai,"Velachery Res. Area, Chennai - CPCB",13.0052189,80.2398125,2025-05-19 10:00:00,47.0,5.0,14.0,43.0,52.0,37.0,9.0
India,TamilNadu,Hosur,"SIPCOT Phase-1, Hosur - TNPCB",12.746998,77.813811,2025-05-19 10:00:00,18.0,1.0,2.0,10.0,84.0,76.0,54.0
India,TamilNadu,Madurai,"Uchapatti, Madurai - TNPCB",9.865935,78.022669,2025-05-19 10:00:00,12.0,3.0,20.0,6.0,26.0,19.0,32.0
India,TamilNadu,Ramanathapuram,"Chalai Bazaar, Ramanathapuram - TNPCB",9.36399,78.831977,2025-05-19 10:00:00,29.0,2.0,12.0,6.0,22.0,25.0,14.0
India,TamilNadu,Salem,"Sona College of Technology, Salem - TNPCB",11.679111,78.125052,2025-05-19 10:00:00,43.0,3.0,12.0,16.0,25.0,17.0,82.0
India,TamilNadu,Tiruchirappalli,"St Joseph College, Tiruchirappalli - TNPCB",10.830158,78.691849,2025-05-19 10:00:00,5.0,1.0,4.0,13.0,42.0,44.0,16.0
India,TamilNadu,Tirunelveli,"Municipal Corporation Office, Tirunelveli - TNPCB",8.728442,77.6962,2025-05-19 10:00:00,21.0,1.0,8.0,6.0,31.0,32.0,16.0
India,Telangana,Hyderabad,"Bollaram Industrial Area, Hyderabad - TSPCB",17.540891,78.358528,2025-05-19 10:00:00,59.0,5.0,38.0,73.0,59.0,53.0,8.0
India,Telangana,Hyderabad,"ICRISAT Patancheru, Hyderabad - TSPCB",17.5184,78.278777,2025-05-19 10:00:00,27.0,2.0,13.0,28.0,53.0,54.0,15.0
India,Telangana,Hyderabad,"IITH Kandi, Hyderabad - TSPCB",17.585705,78.126199,2025-05-19 10:00:00,16.0,3.0,14.0,34.0,61.0,56.0,7.0
India,Telangana,Hyderabad,"Kokapet, Hyderabad - TSPCB",17.393559,78.339194,2025-05-19 10:00:00,31.0,1.0,12.0,38.0,91.0,46.0,10.0
India,Telangana,Hyderabad,"Nacharam_TSIIC IALA, Hyderabad - TSPCB",17.429398,78.569354,2025-05-19 10:00:00,33.0,3.0,13.0,11.0,78.0,56.0,15.0
India,Telangana,Hyderabad,"New Malakpet, Hyderabad - TSPCB",17.37206,78.50864,2025-05-19 10:00:00,16.0,3.0,14.0,11.0,58.0,44.0,13.0
India,Telangana,Hyderabad,"Ramachandrapuram, Hyderabad - TSPCB",17.528544,78.286195,2025-05-19 10:00:00,28.0,6.0,15.0,3.0,67.0,45.0,11.0
India,Telangana,Hyderabad,"Somajiguda, Hyderabad - TSPCB",17.417094,78.457437,2025-05-19 10:00:00,29.0,4.0,14.0,22.0,101.0,86.0,11.0
India,Uttar_Pradesh,Agra,"Manoharpur, Agra - UPPCB",27.23711,78.01936,2025-05-19 10:00:00,16.0,3.0,32.0,2.0,98.0,58.0,44.0
India,Uttar_Pradesh,Agra,"Rohta, Agra - UPPCB",27.106972,78.000111,2025-05-19 10:00:00,30.0,2.0,6.0,12.0,61.0,65.0,16.0
India,Uttar_Pradesh,Agra,"Shahjahan Garden, Agra - UPPCB",27.169338,78.03582,2025-05-19 10:00:00,19.0,1.0,32.0,22.0,75.0,57.0,21.0
India,Uttar_Pradesh,Agra,"Shastripuram, Agra - UPPCB",27.19862,77.92066,2025-05-19 10:00:00,15.0,2.0,36.0,69.0,120.0,54.0,10.0
India,Uttar_Pradesh,Baghpat,"Sardar Patel Inter College, Baghpat - UPPCB",28.964949,77.278761,2025-05-19 10:00:00,38.0,3.0,25.0,17.0,142.0,45.0,37.0
India,Uttar_Pradesh,Bareilly,"Civil Lines, Bareilly - UPPCB",28.359581,79.414455,2025-05-19 10:00:00,7.0,2.0,2.0,22.0,12.0,5.0,73.0
India,Uttar_Pradesh,Bulandshahr,"Yamunapuram, Bulandshahr - UPPCB",28.406963,77.849831,2025-05-19 10:00:00,6.0,16.0,15.0,19.0,118.0,74.0,23.0
India,Uttar_Pradesh,Firozabad,"Nagla Bhau, Firozabad - UPPCB",27.168897,78.37696,2025-05-19 10:00:00,28.0,2.0,17.0,18.0,66.0,35.0,27.0
India,Uttar_Pradesh,Ghaziabad,"Indirapuram, Ghaziabad - UPPCB",28.646233,77.358075,2025-05-19 10:00:00,55.0,13.0,33.0,40.0,123.0,129.0,13.0
India,Uttar_Pradesh,Ghaziabad,"Loni, Ghaziabad - UPPCB",28.757294,77.278792,2025-05-19 10:00:00,55.0,3.0,32.0,17.0,126.0,108.0,24.0
India,Uttar_Pradesh,Ghaziabad,"Sanjay Nagar, Ghaziabad - UPPCB",28.685382,77.453839,2025-05-19 10:00:00,40.0,9.0,41.0,11.0,125.0,84.0,26.0
India,Uttar_Pradesh,Ghaziabad,"Vasundhara, Ghaziabad - UPPCB",28.6603346,77.3572563,2025-05-19 10:00:00,52.0,9.0,25.0,20.0,112.0,63.0,12.0
India,Uttar_Pradesh,Gorakhpur,"Madan Mohan Malaviya University of Technology, Gorakhpur - UPPCB",26.730136,83.433859,2025-05-19 10:00:00,6.0,1.0,11.0,14.0,124.0,88.0,34.0
India,Uttar_Pradesh,Greater Noida,"Knowledge Park - III, Greater Noida - UPPCB",28.47272,77.482,2025-05-19 10:00:00,39.0,13.0,33.0,22.0,105.0,50.0,15.0
India,Uttar_Pradesh,Greater Noida,"Knowledge Park - V, Greater Noida - UPPCB",28.557054,77.453663,2025-05-19 10:00:00,32.0,17.0,49.0,8.0,141.0,70.0,10.0
India,Uttar_Pradesh,Hapur,"Anand Vihar, Hapur - UPPCB",28.725645,77.749675,2025-05-19 10:00:00,16.0,14.0,39.0,1.0,89.0,51.0,33.0
India,Uttar_Pradesh,Jhansi,"Shivaji Nagar, Jhansi - UPPCB",25.4547,78.6039,2025-05-19 10:00:00,11.0,4.0,6.0,7.0,71.0,45.0,41.0
India,Uttar_Pradesh,Kanpur,"FTI Kidwai Nagar, Kanpur - UPPCB",26.428282,80.327067,2025-05-19 10:00:00,27.0,2.0,17.0,25.0,86.0,71.0,45.0
India,Uttar_Pradesh,Kanpur,"NSI Kalyanpur, Kanpur - UPPCB",26.509954,80.249612,2025-05-19 10:00:00,32.0,2.0,16.0,17.0,89.0,54.0,18.0
India,Uttar_Pradesh,Khurja,"Kalindi Kunj, Khurja - UPPCB",28.2348927,77.8683002,2025-05-19 10:00:00,43.0,1.0,3.0,5.0,127.0,67.0,80.0
India,Uttar_Pradesh,Lucknow,"B R Ambedkar University, Lucknow - UPPCB",26.766433,80.927299,2025-05-19 10:00:00,14.0,1.0,12.0,35.0,106.0,82.0,92.0
India,Uttar_Pradesh,Lucknow,"Kendriya Vidyalaya, Lucknow - CPCB",26.906111,80.948222,2025-05-19 10:00:00,64.0,15.0,36.0,11.0,138.0,123.0,5.0
India,Uttar_Pradesh,Lucknow,"Kukrail Picnic Spot-1, Lucknow - UPPCB",26.90723,80.98579,2025-05-19 10:00:00,24.0,4.0,23.0,43.0,64.0,43.0,18.0
India,Uttar_Pradesh,Lucknow,"Lalbagh, Lucknow - CPCB",26.8458805,80.9365541,2025-05-19 10:00:00,49.0,18.0,45.0,17.0,132.0,110.0,10.0
India,Uttar_Pradesh,Lucknow,"Talkatora District Industries Center, Lucknow - CPCB",26.83399722,80.8917361,2025-05-19 10:00:00,23.0,12.0,38.0,9.0,169.0,93.0,7.0
India,Uttar_Pradesh,Meerut,"Ganga Nagar, Meerut - UPPCB",28.999264,77.7590354,2025-05-19 10:00:00,35.0,10.0,12.0,60.0,92.0,63.0,18.0
India,Uttar_Pradesh,Meerut,"Jai Bhim Nagar, Meerut - UPPCB",28.9535882,77.7622941,2025-05-19 10:00:00,36.0,19.0,17.0,62.0,104.0,26.0,10.0
India,Uttar_Pradesh,Meerut,"Pallavpuram Phase 2, Meerut - UPPCB",29.06351,77.709723,2025-05-19 10:00:00,11.0,10.0,22.0,35.0,117.0,61.0,26.0
India,Uttar_Pradesh,Moradabad,"Buddhi Vihar, Moradabad - UPPCB",28.83526,78.7446,2025-05-19 10:00:00,39.0,4.0,23.0,20.0,68.0,38.0,17.0
India,Uttar_Pradesh,Moradabad,"Eco Herbal Park, Moradabad - UPPCB",28.840739,78.697531,2025-05-19 10:00:00,7.0,11.0,20.0,52.0,63.0,37.0,11.0
India,Uttar_Pradesh,Moradabad,"Employment Office, Moradabad - UPPCB",28.88528,78.7388,2025-05-19 10:00:00,32.0,4.0,16.0,18.0,68.0,43.0,32.0
India,Uttar_Pradesh,Moradabad,"Jigar Colony, Moradabad - UPPCB",28.856664,78.772638,2025-05-19 10:00:00,42.0,6.0,25.0,19.0,69.0,35.0,46.0
India,Uttar_Pradesh,Moradabad,"Transport Nagar, Moradabad - UPPCB",28.802625,78.753728,2025-05-19 10:00:00,76.0,5.0,27.0,60.0,61.0,42.0,38.0
India,Uttar_Pradesh,Muzaffarnagar,"New Mandi, Muzaffarnagar - UPPCB",29.4723508,77.7194031,2025-05-19 10:00:00,26.0,10.0,27.0,35.0,127.0,141.0,20.0
India,Uttar_Pradesh,Noida,"Sector - 125, Noida - UPPCB",28.5447608,77.3231257,2025-05-19 10:00:00,62.0,8.0,19.0,17.0,122.0,65.0,15.0
India,Uttar_Pradesh,Noida,"Sector-1, Noida - UPPCB",28.5898,77.3101,2025-05-19 10:00:00,25.0,16.0,71.0,9.0,137.0,88.0,23.0
India,Uttar_Pradesh,Prayagraj,"Jhunsi, Prayagraj - UPPCB",25.425602,81.917152,2025-05-19 10:00:00,9.0,5.0,6.0,55.0,96.0,42.0,28.0
India,Uttar_Pradesh,Prayagraj,"Motilal Nehru NIT, Prayagraj - UPPCB",25.494,81.863,2025-05-19 10:00:00,14.0,6.0,12.0,21.0,87.0,57.0,33.0
India,Uttar_Pradesh,Prayagraj,"Nagar Nigam, Prayagraj - UPPCB",25.44919916,81.82735986,2025-05-19 10:00:00,4.0,8.0,5.0,12.0,96.0,65.0,47.0
India,Uttar_Pradesh,Varanasi,"Bhelupur, Varanasi - UPPCB",25.301778,82.996789,2025-05-19 10:00:00,8.0,1.0,8.0,3.0,61.0,18.0,40.0
India,Uttar_Pradesh,Varanasi,"IESD Banaras Hindu University, Varanasi - UPPCB",25.262326,82.995408,2025-05-19 10:00:00,8.0,2.0,2.0,3.0,51.0,35.0,30.0
India,Uttar_Pradesh,Varanasi,"Maldahiya, Varanasi - UPPCB",25.32393,82.99687,2025-05-19 10:00:00,18.0,1.0,2.0,2.0,62.0,27.0,29.0
India,Uttar_Pradesh,Vrindavan,"Omex Eternity, Vrindavan - UPPCB",27.571409,77.655757,2025-05-19 10:00:00,37.0,2.0,12.0,12.0,60.0,40.0,27.0
India,Uttarakhand,Rishikesh,"Shivaji Nagar, Rishikesh - UKPCB",30.075911,78.2859547,2025-05-19 10:00:00,33.0,5.0,10.0,24.0,70.0,65.0,4.0
India,West_Bengal,Asansol,"Asansol Court Area, Asansol - WBPCB",23.685297,86.945968,2025-05-19 10:00:00,22.0,5.0,22.0,12.0,57.0,55.0,7.0
India,West_Bengal,Asansol,"Evelyn Lodge, Asansol - WBPCB",23.697936,86.944395,2025-05-19 10:00:00,2.0,1.0,10.0,13.0,41.0,30.0,3.0
India,West_Bengal,Asansol,"Mahabir Colliery, Asansol - WBPCB",23.618183,87.105718,2025-05-19 10:00:00,9.0,23.0,14.0,7.0,37.0,32.0,4.0
India,West_Bengal,Asansol,"Trivenidevi Bhalotia College, Asansol - WBPCB",23.616515,87.119133,2025-05-19 10:00:00,18.0,1.0,16.0,17.0,52.0,40.0,8.0
India,West_Bengal,Barrackpore,"SVSPA Campus, Barrackpore - WBPCB",22.7605581,88.3617589,2025-05-19 10:00:00,27.0,6.0,14.0,7.0,33.0,17.0,7.0
India,West_Bengal,Durgapur,"Mahishkapur Road_B-Zone, Durgapur - WBPCB",23.567923,87.306843,2025-05-19 10:00:00,27.0,1.0,11.0,5.0,58.0,27.0,26.0
India,West_Bengal,Durgapur,"PCBL Residential Complex, Durgapur - WBPCB",23.508764,87.35444,2025-05-19 10:00:00,68.0,1.0,26.0,16.0,77.0,33.0,5.0
India,West_Bengal,Haldia,"Priyambada Housing Estate, Haldia - WBPCB",22.06047,88.109737,2025-05-19 10:00:00,21.0,5.0,13.0,16.0,24.0,14.0,13.0
India,West_Bengal,Howrah,"Belur Math, Howrah - WBPCB",22.629801,88.352017,2025-05-19 10:00:00,8.0,4.0,34.0,19.0,30.0,13.0,8.0
India,West_Bengal,Howrah,"Botanical Garden, Howrah - WBPCB",22.554954,88.292568,2025-05-19 10:00:00,67.0,2.0,55.0,8.0,31.0,17.0,9.0
India,West_Bengal,Howrah,"Dasnagar, Howrah - WBPCB",22.6025571,88.3105664,2025-05-19 10:00:00,20.0,8.0,72.0,57.0,42.0,33.0,4.0
India,West_Bengal,Howrah,"Ghusuri, Howrah - WBPCB",22.611968,88.347422,2025-05-19 10:00:00,9.0,10.0,23.0,29.0,24.0,28.0,10.0
India,West_Bengal,Howrah,"Padmapukur, Howrah - WBPCB",22.5687319,88.2797276,2025-05-19 10:00:00,16.0,2.0,12.0,20.0,50.0,25.0,7.0
India,West_Bengal,Kolkata,"Bidhannagar, Kolkata - WBPCB",22.58157048,88.41002457,2025-05-19 10:00:00,23.0,6.0,17.0,18.0,62.0,15.0,9.0
India,West_Bengal,Kolkata,"Fort William, Kolkata - WBPCB",22.55664,88.342674,2025-05-19 10:00:00,20.0,6.0,34.0,7.0,30.0,27.0,3.0
India,West_Bengal,Kolkata,"Jadavpur, Kolkata - WBPCB",22.49929,88.36917,2025-05-19 10:00:00,21.0,10.0,36.0,14.0,48.0,49.0,6.0
India,West_Bengal,Kolkata,"Rabindra Bharati University, Kolkata - WBPCB",22.627847,88.380669,2025-05-19 10:00:00,21.0,13.0,24.0,18.0,24.0,26.0,11.0
India,West_Bengal,Kolkata,"Rabindra Sarobar, Kolkata - WBPCB",22.51106,88.35142,2025-05-19 10:00:00,11.0,4.0,44.0,20.0,28.0,16.0,2.0
India,West_Bengal,Kolkata,"Victoria, Kolkata - WBPCB",22.5448082,88.3403691,2025-05-19 10:00:00,22.0,5.0,26.0,25.0,39.0,30.0,8.0
India,West_Bengal,Siliguri,"Ward-32 Bapupara, Siliguri - WBPCB",26.6879226,88.4152495,2025-05-19 10:00:00,30.0,10.0,16.0,24.0,35.0,36.0,11.0
